STARLINK-3766           
1 52296U 22041AM  26068.80116918  .00000010  00000+0  18732-4 0  9994
2 52296  53.2167  98.6191 0001405  90.4516 269.6637 15.08840188214525
YAM-8                   
1 63254U 25052AW  26068.73092778  .00007810  00000+0  47267-3 0  9993
2 63254  97.7023 329.5345 0002369 152.6796 207.4558 15.10898938 54245
